#dP2018  7 31  0  0  0.00000000      96 __u+U ITR00 FIT  IAC
## 2012 172800.00000000   900.00000000 58330 0.0000000000000
+   86   C01C02C03C04C05C06C07C08C09C10C11C12C13C14E01E02E03
+        E04E05E07E08E09E11E12E14E18E19E24E26E30G01G02G03G04
+        G05G06G07G08G09G10G11G12G13G14G15G16G17G18G19G20G21
+        G22G23G24G25G26G27G28G29G30G31G32J01R01R02R03R04R05
+        R07R08R09R10R11R13R14R15R16R17R18R19R20R21R22R23R24
+        R26  0  0  0  0  0  0  0  0  0  0  0  0  0  0  0  0
++         0  0  0  0  0  0  0  0  0  0  0  0  0  0  0  0  0
++         0  0  0  0  0  0  0  0  0  0  0  0  0  0  0  0  0
++         0  0  0  0  0  0  0  0  0  0  0  0  0  0  0  0  0
++         0  0  0  0  0  0  0  0  0  0  0  0  0  0  0  0  0
++         0  0  0  0  0  0  0  0  0  0  0  0  0  0  0  0  0
++         0  0  0  0  0  0  0  0  0  0  0  0  0  0  0  0  0
%c M  cc GPS ccc cccc cccc cccc cccc ccccc ccccc ccccc ccccc
%c cc cc ccc ccc cccc cccc cccc cccc ccccc ccccc ccccc ccccc
%f  0.0000000  0.000000000  0.00000000000  0.000000000000000
%f  0.0000000  0.000000000  0.00000000000  0.000000000000000
%i    0    0    0    0      0      0      0      0         0
%i    0    0    0    0      0      0      0      0         0
/*                                                          
/*   RSA / INFORMATION & ANALYSIS CENTER (IAC) OF MCC       
/*   ULTRA-RAPID DETERMINATION                              
/* PCV:IGS14_2000 OL/AL:FES2004  NONE     YN ORB:CoN CLK:CoN
*  2018 07 31 20 45  0.00000000
PC01 -32246.119070  27169.812512    612.992730    411.496456
PC02   4451.810944  41912.870089  -1439.870766    -70.418589
PC03 -14686.939216  39502.427740   -192.874602    265.451413
PC04 -39640.652202  14399.273657     48.220439   -250.064776
PC05  21914.939809  35998.284381  -1083.067827    262.444510
PC06 -16217.661275  38500.899390  -3981.135683    131.643609
PC07  -9045.557843  26000.089800  32167.580961     43.491236
PC08 -23437.080810  22124.126499 -27260.610240    463.576793
PC09  -8542.133418  40106.887696   9242.317959     99.229881
PC10   5499.945462  33343.261823  25575.250582   -430.175860
PC11  14120.114413 -21409.153209  10955.910191   -615.472137
PC12  23233.119526 -13309.996216  -7640.123078    539.285497
PC13  -9569.364795  24766.103335 -32810.418582   -204.391498
PC14   5116.407508 -23829.913810  13695.776274    330.393589
PE01  24733.650494  14422.500106  -7537.838175   -402.827866
PE02 -24732.387111 -14386.828266   7577.022018     21.686016
PE03 -15424.855344  -8988.919439 -23599.679427    -60.632802
PE04  17055.789620 -13256.796800  20249.140394    -86.782309
PE05  -4743.413125 -26093.024687 -13137.106323    219.208606
PE07  -8656.888743  27872.651660  -4948.548228    -11.963715
PE08 -16798.732386  13464.366068 -20309.267986   6532.792835
PE09   8409.647815 -27924.595269   5037.149421   6719.051403
PE11  14056.414238 -18401.209395  18438.051372   3134.696734
PE12  27486.748357 -10955.116462   1091.402287   4725.661526
PE14   7118.064847  21031.008958 -22324.931592   6542.593309
PE18   3418.493379 -21437.603872  12810.955781   6017.458507
PE19  14653.621333  10971.987890  23270.483362    -13.611002
PE24   2979.273132 -17730.357701 -23523.191380   6571.420570
PE26   7053.756554  15063.608721 -24488.037160   5646.085849
PE30 -19603.712904   2332.783613  22047.691549   5633.032567
PG01  14601.995012  13327.169937 -18042.600957    -71.528162
PG02   8440.674836 -14839.512651  20860.670412     41.642331
PG03  13581.296226  22667.729218   2994.285039    114.356815
PG04 -12525.996962   7848.420061  21802.237963     83.865525
PG05    794.242845 -21699.773371  15042.759989     -3.809946
PG06  22690.612964  -6876.252034  12024.503274    381.365858
PG07  25454.987106   6201.885757   5907.742297    149.531080
PG08  -2193.261018  21944.301493 -14644.221386   -110.086944
PG09  14795.370370   5172.605295  21413.847208    512.427123
PG10 -15681.281203   1907.942445 -21330.888519    188.009589
PG11   9253.220280  14129.046063 -21043.841711   -727.307146
PG12  -9048.862926 -25009.359225  -2026.282059    317.225590
PG13  10851.402078 -22478.515569  -9171.795787    -91.670382
PG14 -18360.492364  18457.692067  -4444.741779    -97.652939
PG15  -2831.461821 -20609.119465 -16515.124759   -349.561741
PG16  -3299.958355  20526.821567  16119.354865     15.513715
PG17  19549.486852 -11754.279201 -13111.111830    -72.310332
PG18   4973.850222  15464.477028 -21509.103334     40.306838
PG19  19189.034757 -17731.340049  -5507.767691   -415.706461
PG20 -19492.781522  -7208.246068 -16709.079031    513.369259
PG21 -26269.857449  -2740.069471   3367.834904   -359.407610
PG22   9719.918009  24200.232874  -4862.344521   -475.186101
PG23   7873.913965  15238.615702  20477.212970   -213.594704
PG24 -10734.197812 -14542.912328 -19668.736379    -53.349980
PG25 -16891.734527 -17340.380480  11008.368332   -624.647429
PG26 -10017.389444  12826.082736  20957.668311    -66.102399
PG27 -11436.670542  23336.207434  -4847.174843    357.343418
PG28  15629.324537   2207.334001 -20734.038629    735.143284
PG29 -12825.385812  -7333.364686  22044.496026    404.540802
PG30  26225.964623   -480.755531  -4714.666200     43.557261
PG31 -21776.822148   7505.292988  13620.218006    103.864558
PG32 -19276.438841  12455.890273 -13247.689482   -462.736484
PJ01 -17644.057930  27667.663342 -21871.450698   -158.964450
PR01   6599.294979 -20001.794544  14383.473744     29.872292
PR02  -2357.129748 -24943.987156  -4880.009682    322.449789
PR03  -9267.586490 -13812.502657 -19311.292429    139.236934
PR04 -10642.995384   5918.668250 -22391.073897    270.627234
PR05  -5531.042720  21665.069433 -12290.933556    -49.068971
PR07   9415.345308  13291.581401  19656.353860    -43.731932
PR08  10757.513499  -5170.942542  22599.207784     22.018126
PR09  11414.075769  15888.210015  16426.602882     20.920748
PR10  21753.851188  13373.049363   1011.802650     28.888624
PR11  19835.239141   2812.638158 -15806.526885    -36.307128
PR13 -11500.940623 -15469.897188 -16712.101867    -13.078284
PR14 -21727.323510 -13291.386823  -1152.539509     29.593902
PR15 -21459.090867  -5900.294499  12557.566869    -13.972756
PR16  -7018.954886   8622.334920  22943.054669     98.229019
PR17 -14044.696704  -3157.655736  21069.090623    152.366559
PR18 -22437.548889   8225.763755   8844.092000    205.049530
PR19 -18922.483035  14798.463168  -8589.907933    -57.325730
PR20  -2972.592660  12851.279248 -21822.625344   -347.099529
PR21  14264.049173   2858.918356 -20951.808672      4.380663
PR22  22781.003598  -9455.667824  -6753.144343    -57.565656
PR23  16034.682853 -15575.528755  12273.082754    169.172253
PR24   1716.222176 -12535.062250  22119.849588   -169.557671
PR26  -3836.308930  13379.420125 -21375.282526     38.126151
EOF
